*******************************************************************************
 Revised: Dec 17, 2009              Jupiter                                 599
 
 PHYSICAL DATA (updated 2009-Jan-28):
  Mass (10^24 kg)       =  1898.13+-.19   Density (g/cm^3)       =  1.326
  Equat. radius (1 bar) = 71492+-4 km     Polar radius (km)      = 66854+-10
  Volumetric mean radius= 69911+-6 km     Flattening             =  0.06487

  Rotation period       = 9h 55m 29.685s  Rot. rate(10^-4 rad/s) =  1.75865
  m = w^2a^3/GM         =  0.089195       Hydrostatic flat., fh  =  0.06509
  Inferred rot. period  =  9.894+-0.02 hr ks = 3*J2/m            =  0.494
  Mom. of inert. I/MRo^2=  0.254          I/MRo^2 (upper bound)  =  0.267 
  Rocky core mass (Mc/M)=  0.0261         Y factor (He/H ratio)  =  0.18+-0.04

  GM (km^3/s^2)         = 126,686,511     GM 1-sigma (km^3/s^2)  = +-100
  Equ. grav, ge (m/s^2) = 24.79           Pol. grav, gp (m/s^2)  = 28.34

  Geometric albedo      =  0.52           Visual magnitude V(1,0)= -9.40
  Vis. mag. (opposition)= -2.70           Obliquity to orbit     =  3.12 deg
  Sidereal orbit period = 11.862615 yr    Sidereal orbit period  = 4332.820 d
  Mean daily motion     = 0.0831294 deg/d Mean orbit velocity    = 13.0697 km/s

  Atmos. temp. (1 bar)  = 165+-5 K        Heat flow/mass (x10^7) = 15 erg/gm*s
  Planetary Solar Const =  50.5 W/m^2     Dipole tilt/offset     = 9.6deg/0.1Rp 
  Escape velocity (km/s)=  59.5           Mag.dip.mom(gauss-Rp^3)= 4.2 
  Aroche(ice)/Rp        =  2.76           Hill's sphere rad. Rp  = 740
*******************************************************************************
 
 
*******************************************************************************
Ephemeris / WWW_USER Fri Sep 24 09:51:32 2010  Pasadena, USA     / Horizons    
*******************************************************************************
Target body name: Jupiter (599)                   {source: JUP230}
Center body name: Solar System Barycenter (0)     {source: DE405}
Center-site name: BODY CENTER
*******************************************************************************
Start time      : A.D. 2005-Jan-01 00:00:00.0000 CT 
Stop  time      : A.D. 2015-Jan-01 00:00:00.0000 CT 
Step-size       : 360 minutes
*******************************************************************************
Center geodetic : 0.00000000,0.00000000,0.0000000 {E-lon(deg),Lat(deg),Alt(km)}
Center cylindric: 0.00000000,0.00000000,0.0000000 {E-lon(deg),Dxy(km),Dz(km)}
Center radii    : (undefined)                                                  
Output units    : KM-S                                                         
Output format   : 02
Reference frame : ICRF/J2000.0                                                 
Output type     : GEOMETRIC cartesian states
Coordinate systm: Ecliptic and Mean Equinox of Reference Epoch                 
*******************************************************************************
JDCT ,   , X, Y, Z, VX, VY, VZ,
*******************************************************************************
$$SOE
2455305.250000000, A.D. 2010-Apr-18 18:00:00.0000,  7.156370689797455E+08, -2.043020937083198E+08, -1.517677965911570E+07,  3.427649573251898E+00,  1.318688520494212E+01, -1.314186419446566E-01,
2455305.500000000, A.D. 2010-Apr-19 00:00:00.0000,  7.157110442241563E+08, -2.040172429527396E+08, -1.517961731213421E+07,  3.421961021688752E+00,  1.318808728113419E+01, -1.313297880556084E-01,
2455305.750000000, A.D. 2010-Apr-19 06:00:00.0000,  7.157849012834842E+08, -2.037323710736503E+08, -1.518245315496372E+07,  3.416757325007817E+00,  1.318891768382244E+01, -1.312476289369613E-01,
2455306.000000000, A.D. 2010-Apr-19 12:00:00.0000,  7.158586523232175E+08, -2.034474806692070E+08, -1.518528711707628E+07,  3.412119109744286E+00,  1.318988736261122E+01, -1.311529982234525E-01,
2455306.250000000, A.D. 2010-Apr-19 18:00:00.0000,  7.159323064946768E+08, -2.031625641519920E+08, -1.518811880939056E+07,  3.407706290807352E+00,  1.319136856043070E+01, -1.310374228016506E-01,
2455306.500000000, A.D. 2010-Apr-20 00:00:00.0000,  7.160058631841737E+08, -2.028776099540429E+08, -1.519094783682440E+07,  3.403016583519821E+00,  1.319333519304542E+01, -1.309087586458988E-01,
2455306.750000000, A.D. 2010-Apr-20 06:00:00.0000,  7.160793126435547E+08, -2.025926114300123E+08, -1.519377410426602E+07,  3.397763837069522E+00,  1.319538805950976E+01, -1.307850453235604E-01,
2455307.000000000, A.D. 2010-Apr-20 12:00:00.0000,  7.161526434787151E+08, -2.023075720727935E+08, -1.519659789643471E+07,  3.392091829687194E+00,  1.319705094686337E+01, -1.306810266360321E-01,
2455307.250000000, A.D. 2010-Apr-20 18:00:00.0000,  7.162258513356549E+08, -2.020225031248512E+08, -1.519941967128590E+07,  3.386463722506012E+00,  1.319813356709789E+01, -1.305968147303851E-01,
2455307.500000000, A.D. 2010-Apr-21 00:00:00.0000,  7.162989422110436E+08, -2.017374151258576E+08, -1.520223971335579E+07,  3.381308257623526E+00,  1.319888900806905E+01, -1.305172532854550E-01,
2455307.750000000, A.D. 2010-Apr-21 06:00:00.0000,  7.163719278318304E+08, -2.014523098071368E+08, -1.520505791070125E+07,  3.376690319422513E+00,  1.319982096674749E+01, -1.304233999992972E-01,
2455308.000000000, A.D. 2010-Apr-21 12:00:00.0000,  7.164448166394417E+08, -2.011671789457995E+08, -1.520787384137627E+07,  3.372262353511080E+00,  1.320128171102935E+01, -1.303075346729887E-01,
2455308.250000000, A.D. 2010-Apr-21 18:00:00.0000,  7.165176072793591E+08, -2.008820108329687E+08, -1.521068709630981E+07,  3.367523677551219E+00,  1.320323326826659E+01, -1.301780517506996E-01,
2455308.500000000, A.D. 2010-Apr-22 00:00:00.0000,  7.165902890721085E+08, -2.005967984306098E+08, -1.521349756499535E+07,  3.362164113918949E+00,  1.320527234378228E+01, -1.300537830723130E-01,
2455308.750000000, A.D. 2010-Apr-22 06:00:00.0000,  7.166628492517940E+08, -2.003115463961342E+08, -1.521630558644098E+07,  3.356311947474279E+00,  1.320685125959581E+01, -1.299526541092018E-01,
2455309.000000000, A.D. 2010-Apr-22 12:00:00.0000,  7.167352821590737E+08, -2.000262676968862E+08, -1.521911170145932E+07,  3.350494357921055E+00,  1.320773338567172E+01, -1.298759829080121E-01,
2455309.250000000, A.D. 2010-Apr-22 18:00:00.0000,  7.168075943816522E+08, -1.997409755967552E+08, -1.522191629567961E+07,  3.345191610523373E+00,  1.320816705330826E+01, -1.298084457485480E-01,
2455309.500000000, A.D. 2010-Apr-23 00:00:00.0000,  7.168797992851201E+08, -1.994556744154011E+08, -1.522471934565642E+07,  3.340546555732303E+00,  1.320866281486648E+01, -1.297300085003048E-01,
2455309.750000000, A.D. 2010-Apr-23 06:00:00.0000,  7.169519088028870E+08, -1.991703577144035E+08, -1.522752046659282E+07,  3.336283016660588E+00,  1.320965206562018E+01, -1.296291826012439E-01,
2455310.000000000, A.D. 2010-Apr-23 12:00:00.0000,  7.170239257400241E+08, -1.988850133079453E+08, -1.523031919548069E+07,  3.331890586666834E+00,  1.321120090446471E+01, -1.295106338429646E-01,
2455310.250000000, A.D. 2010-Apr-23 18:00:00.0000,  7.170958429185506E+08, -1.985996322506635E+08, -1.523311532070655E+07,  3.327019460958596E+00,  1.321296476123593E+01, -1.293913172549983E-01,
2455310.500000000, A.D. 2010-Apr-24 00:00:00.0000,  7.171676499355515E+08, -1.983142152176277E+08, -1.523590901340206E+07,  3.321738106384152E+00,  1.321446164770327E+01, -1.292871976102576E-01,
2455310.750000000, A.D. 2010-Apr-24 06:00:00.0000,  7.172393420411392E+08, -1.980287712490059E+08, -1.523870065836607E+07,  3.316462545607494E+00,  1.321545493888421E+01, -1.292006529574214E-01,
2455311.000000000, A.D. 2010-Apr-24 12:00:00.0000,  7.173109243883097E+08, -1.977433098312008E+08, -1.524149051320133E+07,  3.311629644668967E+00,  1.321614397190243E+01, -1.291182829139625E-01,
2455311.250000000, A.D. 2010-Apr-24 18:00:00.0000,  7.173824085981379E+08, -1.974578324904235E+08, -1.524427845796429E+07,  3.307358410024394E+00,  1.321701596275531E+01, -1.290209316619304E-01,
2455311.500000000, A.D. 2010-Apr-25 00:00:00.0000,  7.174538041623647E+08, -1.971723303998193E+08, -1.524706403141332E+07,  3.303341620292990E+00,  1.321847682948872E+01, -1.288983629109053E-01,
2455311.750000000, A.D. 2010-Apr-25 06:00:00.0000,  7.175251109434259E+08, -1.968867897945901E+08, -1.524984673031811E+07,  3.299050990945110E+00,  1.322054770665157E+01, -1.287572187086310E-01,
2455312.000000000, A.D. 2010-Apr-25 12:00:00.0000,  7.175963184025198E+08, -1.966012010507280E+08, -1.525262634560789E+07,  3.294114322677097E+00,  1.322284731458884E+01, -1.286163921667116E-01,
2455312.250000000, A.D. 2010-Apr-25 18:00:00.0000,  7.176674122759603E+08, -1.963155651281117E+08, -1.525540310068917E+07,  3.288579335526971E+00,  1.322482747300941E+01, -1.284949454507656E-01,
2455312.500000000, A.D. 2010-Apr-26 00:00:00.0000,  7.177383838834243E+08, -1.960298934472072E+08, -1.525817751866320E+07,  3.282896373563314E+00,  1.322615762700600E+01, -1.283986266826584E-01,
2455312.750000000, A.D. 2010-Apr-26 06:00:00.0000,  7.178092361473004E+08, -1.957441987216667E+08, -1.526095001254456E+07,  3.277598121221535E+00,  1.322700259825625E+01, -1.283143895176444E-01,
2455313.000000000, A.D. 2010-Apr-26 12:00:00.0000,  7.178799803136686E+08, -1.954584868249273E+08, -1.526372064047465E+07,  3.272875876486163E+00,  1.322784634259127E+01, -1.282225162115758E-01,
2455313.250000000, A.D. 2010-Apr-26 18:00:00.0000,  7.179506270423932E+08, -1.951727525716201E+08, -1.526648907780176E+07,  3.268511593010350E+00,  1.322912357549272E+01, -1.281106462449850E-01,
2455313.500000000, A.D. 2010-Apr-27 00:00:00.0000,  7.180211790969878E+08, -1.948869846043600E+08, -1.526925489069030E+07,  3.264023010779761E+00,  1.323095172989041E+01, -1.279812860803666E-01,
2455313.750000000, A.D. 2010-Apr-27 06:00:00.0000,  7.180916289677402E+08, -1.946011736326228E+08, -1.527201786021303E+07,  3.259012209020228E+00,  1.323302570752176E+01, -1.278507117219760E-01,
